STARLINK-1029_new
1 14734C 19074X   21326.16805262  .00001248  00000-0  83655-4 0  3267
2 14734  53.0539 307.9701 0001588  57.9990 241.2138 15.06387579    10
STARLINK-1029_old
1 24734C 19074X   21325.13608669 -.00018419  00000-0 -12340-2 0  3255
2 24734  53.0538 312.6028 0001631  58.9676  40.7486 15.06419183    10
